<?xml version="1.0" encoding="UTF-8"?>
<gpx version="1.1" creator="CarTelemetry" xmlns="http://www.topografix.com/GPX/1/1">
  <metadata>
    <name>Nürburgring Nordschleife</name>
    <desc>Track centerline stitched from OpenStreetMap relation 38566 ("Nürburgring Nordschleife"), member ways in relation order. Source: OpenStreetMap contributors, ODbL 1.0 (https://www.openstreetmap.org/copyright). Fetched via the OSM API /relation/38566/full endpoint.</desc>
  </metadata>
  <trk>
    <name>Nordschleife</name>
    <trkseg>
      <trkpt lat="50.3490869" lon="6.9738476"/>
      <trkpt lat="50.3478978" lon="6.9708251"/>
      <trkpt lat="50.3473197" lon="6.9693923"/>
      <trkpt lat="50.3467539" lon="6.9679841"/>
      <trkpt lat="50.3454266" lon="6.9646876"/>
      <trkpt lat="50.3439256" lon="6.9609668"/>
      <trkpt lat="50.3435137" lon="6.9599434"/>
      <trkpt lat="50.3433955" lon="6.9596755"/>
      <trkpt lat="50.3432828" lon="6.9594464"/>
      <trkpt lat="50.3431563" lon="6.9592267"/>
      <trkpt lat="50.3430657" lon="6.9590849"/>
      <trkpt lat="50.3429662" lon="6.9589380"/>
      <trkpt lat="50.3423351" lon="6.9581339"/>
      <trkpt lat="50.3420393" lon="6.9577543"/>
      <trkpt lat="50.3408439" lon="6.9562155"/>
      <trkpt lat="50.3407127" lon="6.9560700"/>
      <trkpt lat="50.3406090" lon="6.9559632"/>
      <trkpt lat="50.3405120" lon="6.9558687"/>
      <trkpt lat="50.3403983" lon="6.9557741"/>
      <trkpt lat="50.3402998" lon="6.9557025"/>
      <trkpt lat="50.3401093" lon="6.9555655"/>
      <trkpt lat="50.3399202" lon="6.9554198"/>
      <trkpt lat="50.3398208" lon="6.9553238"/>
      <trkpt lat="50.3397132" lon="6.9552085"/>
      <trkpt lat="50.3396417" lon="6.9551178"/>
      <trkpt lat="50.3395380" lon="6.9549679"/>
      <trkpt lat="50.3388844" lon="6.9539043"/>
      <trkpt lat="50.3388295" lon="6.9538264"/>
      <trkpt lat="50.3387681" lon="6.9537561"/>
      <trkpt lat="50.3387027" lon="6.9536864"/>
      <trkpt lat="50.3386368" lon="6.9536282"/>
      <trkpt lat="50.3385702" lon="6.9535757"/>
      <trkpt lat="50.3384709" lon="6.9535091"/>
      <trkpt lat="50.3383564" lon="6.9534466"/>
      <trkpt lat="50.3383033" lon="6.9534156"/>
      <trkpt lat="50.3382420" lon="6.9533653"/>
      <trkpt lat="50.3381976" lon="6.9533255"/>
      <trkpt lat="50.3381535" lon="6.9532628"/>
      <trkpt lat="50.3381137" lon="6.9531754"/>
      <trkpt lat="50.3380852" lon="6.9530677"/>
      <trkpt lat="50.3380744" lon="6.9529567"/>
      <trkpt lat="50.3380750" lon="6.9528681"/>
      <trkpt lat="50.3380790" lon="6.9527797"/>
      <trkpt lat="50.3381036" lon="6.9525902"/>
      <trkpt lat="50.3381240" lon="6.9523733"/>
      <trkpt lat="50.3381207" lon="6.9522829"/>
      <trkpt lat="50.3381102" lon="6.9521927"/>
      <trkpt lat="50.3380819" lon="6.9520729"/>
      <trkpt lat="50.3380487" lon="6.9519733"/>
      <trkpt lat="50.3378554" lon="6.9515089"/>
      <trkpt lat="50.3377510" lon="6.9512750"/>
      <trkpt lat="50.3377306" lon="6.9512265"/>
      <trkpt lat="50.3377117" lon="6.9511202"/>
      <trkpt lat="50.3377127" lon="6.9510761"/>
      <trkpt lat="50.3377195" lon="6.9510230"/>
      <trkpt lat="50.3377353" lon="6.9509513"/>
      <trkpt lat="50.3377605" lon="6.9508680"/>
      <trkpt lat="50.3378599" lon="6.9506441"/>
      <trkpt lat="50.3380240" lon="6.9503196"/>
      <trkpt lat="50.3382678" lon="6.9498572"/>
      <trkpt lat="50.3384123" lon="6.9496195"/>
      <trkpt lat="50.3385235" lon="6.9494530"/>
      <trkpt lat="50.3386769" lon="6.9492416"/>
      <trkpt lat="50.3387732" lon="6.9491256"/>
      <trkpt lat="50.3389832" lon="6.9488824"/>
      <trkpt lat="50.3391848" lon="6.9486675"/>
      <trkpt lat="50.3392260" lon="6.9486183"/>
      <trkpt lat="50.3392684" lon="6.9485626"/>
      <trkpt lat="50.3392911" lon="6.9485171"/>
      <trkpt lat="50.3393143" lon="6.9484622"/>
      <trkpt lat="50.3393221" lon="6.9484360"/>
      <trkpt lat="50.3393299" lon="6.9484070"/>
      <trkpt lat="50.3393367" lon="6.9483767"/>
      <trkpt lat="50.3393434" lon="6.9483418"/>
      <trkpt lat="50.3393461" lon="6.9483217"/>
      <trkpt lat="50.3393483" lon="6.9482970"/>
      <trkpt lat="50.3393488" lon="6.9482718"/>
      <trkpt lat="50.3393475" lon="6.9482448"/>
      <trkpt lat="50.3393438" lon="6.9482128"/>
      <trkpt lat="50.3393390" lon="6.9481884"/>
      <trkpt lat="50.3393316" lon="6.9481630"/>
      <trkpt lat="50.3393070" lon="6.9480921"/>
      <trkpt lat="50.3392871" lon="6.9480445"/>
      <trkpt lat="50.3392658" lon="6.9480015"/>
      <trkpt lat="50.3392365" lon="6.9479537"/>
      <trkpt lat="50.3391949" lon="6.9478922"/>
      <trkpt lat="50.3391233" lon="6.9478046"/>
      <trkpt lat="50.3390492" lon="6.9477288"/>
      <trkpt lat="50.3382658" lon="6.9470826"/>
      <trkpt lat="50.3381818" lon="6.9470009"/>
      <trkpt lat="50.3380961" lon="6.9469035"/>
      <trkpt lat="50.3380043" lon="6.9467715"/>
      <trkpt lat="50.3378736" lon="6.9465452"/>
      <trkpt lat="50.3377813" lon="6.9463414"/>
      <trkpt lat="50.3376880" lon="6.9461167"/>
      <trkpt lat="50.3376425" lon="6.9459868"/>
      <trkpt lat="50.3374850" lon="6.9454730"/>
      <trkpt lat="50.3373742" lon="6.9450709"/>
      <trkpt lat="50.3373435" lon="6.9449200"/>
      <trkpt lat="50.3373291" lon="6.9447864"/>
      <trkpt lat="50.3373194" lon="6.9446516"/>
      <trkpt lat="50.3373179" lon="6.9445311"/>
      <trkpt lat="50.3373243" lon="6.9443909"/>
      <trkpt lat="50.3373375" lon="6.9442510"/>
      <trkpt lat="50.3373691" lon="6.9440764"/>
      <trkpt lat="50.3374163" lon="6.9439096"/>
      <trkpt lat="50.3378552" lon="6.9425737"/>
      <trkpt lat="50.3378964" lon="6.9424368"/>
      <trkpt lat="50.3379549" lon="6.9421846"/>
      <trkpt lat="50.3380157" lon="6.9418440"/>
      <trkpt lat="50.3380496" lon="6.9415492"/>
      <trkpt lat="50.3380658" lon="6.9413132"/>
      <trkpt lat="50.3381309" lon="6.9400722"/>
      <trkpt lat="50.3381323" lon="6.9399485"/>
      <trkpt lat="50.3381263" lon="6.9398513"/>
      <trkpt lat="50.3381136" lon="6.9397653"/>
      <trkpt lat="50.3380906" lon="6.9396753"/>
      <trkpt lat="50.3379842" lon="6.9393239"/>
      <trkpt lat="50.3379456" lon="6.9391507"/>
      <trkpt lat="50.3379337" lon="6.9390216"/>
      <trkpt lat="50.3379374" lon="6.9389073"/>
      <trkpt lat="50.3379504" lon="6.9388018"/>
      <trkpt lat="50.3379878" lon="6.9386498"/>
      <trkpt lat="50.3380322" lon="6.9385453"/>
      <trkpt lat="50.3381112" lon="6.9384070"/>
      <trkpt lat="50.3381931" lon="6.9382591"/>
      <trkpt lat="50.3382883" lon="6.9381017"/>
      <trkpt lat="50.3383435" lon="6.9380255"/>
      <trkpt lat="50.3383942" lon="6.9379670"/>
      <trkpt lat="50.3384501" lon="6.9379093"/>
      <trkpt lat="50.3385113" lon="6.9378549"/>
      <trkpt lat="50.3385782" lon="6.9378059"/>
      <trkpt lat="50.3387776" lon="6.9376799"/>
      <trkpt lat="50.3388980" lon="6.9375762"/>
      <trkpt lat="50.3389569" lon="6.9375013"/>
      <trkpt lat="50.3390061" lon="6.9374185"/>
      <trkpt lat="50.3390498" lon="6.9373233"/>
      <trkpt lat="50.3392313" lon="6.9368694"/>
      <trkpt lat="50.3392874" lon="6.9367447"/>
      <trkpt lat="50.3393262" lon="6.9366799"/>
      <trkpt lat="50.3393707" lon="6.9366193"/>
      <trkpt lat="50.3394391" lon="6.9365551"/>
      <trkpt lat="50.3395032" lon="6.9365112"/>
      <trkpt lat="50.3395809" lon="6.9364737"/>
      <trkpt lat="50.3397556" lon="6.9364028"/>
      <trkpt lat="50.3398391" lon="6.9363398"/>
      <trkpt lat="50.3398927" lon="6.9362735"/>
      <trkpt lat="50.3399294" lon="6.9362103"/>
      <trkpt lat="50.3399589" lon="6.9361394"/>
      <trkpt lat="50.3399823" lon="6.9360605"/>
      <trkpt lat="50.3400030" lon="6.9359497"/>
      <trkpt lat="50.3401914" lon="6.9341307"/>
      <trkpt lat="50.3402130" lon="6.9339946"/>
      <trkpt lat="50.3402372" lon="6.9339092"/>
      <trkpt lat="50.3402740" lon="6.9338072"/>
      <trkpt lat="50.3403215" lon="6.9337211"/>
      <trkpt lat="50.3403501" lon="6.9336818"/>
      <trkpt lat="50.3403926" lon="6.9336298"/>
      <trkpt lat="50.3404384" lon="6.9335841"/>
      <trkpt lat="50.3404854" lon="6.9335457"/>
      <trkpt lat="50.3405348" lon="6.9335199"/>
      <trkpt lat="50.3405774" lon="6.9335070"/>
      <trkpt lat="50.3406417" lon="6.9334978"/>
      <trkpt lat="50.3407896" lon="6.9334879"/>
      <trkpt lat="50.3409375" lon="6.9334604"/>
      <trkpt lat="50.3410153" lon="6.9334324"/>
      <trkpt lat="50.3410554" lon="6.9334092"/>
      <trkpt lat="50.3411648" lon="6.9333227"/>
      <trkpt lat="50.3412295" lon="6.9332421"/>
      <trkpt lat="50.3412759" lon="6.9331695"/>
      <trkpt lat="50.3413213" lon="6.9330873"/>
      <trkpt lat="50.3413696" lon="6.9329820"/>
      <trkpt lat="50.3421798" lon="6.9311555"/>
      <trkpt lat="50.3425517" lon="6.9302948"/>
      <trkpt lat="50.3428825" lon="6.9295538"/>
      <trkpt lat="50.3429788" lon="6.9293534"/>
      <trkpt lat="50.3430844" lon="6.9291604"/>
      <trkpt lat="50.3431988" lon="6.9289692"/>
      <trkpt lat="50.3433293" lon="6.9287777"/>
      <trkpt lat="50.3434911" lon="6.9285681"/>
      <trkpt lat="50.3443650" lon="6.9274584"/>
      <trkpt lat="50.3451554" lon="6.9264573"/>
      <trkpt lat="50.3453806" lon="6.9261688"/>
      <trkpt lat="50.3454649" lon="6.9260815"/>
      <trkpt lat="50.3455173" lon="6.9260372"/>
      <trkpt lat="50.3455827" lon="6.9259892"/>
      <trkpt lat="50.3456769" lon="6.9259449"/>
      <trkpt lat="50.3457699" lon="6.9259162"/>
      <trkpt lat="50.3458963" lon="6.9259058"/>
      <trkpt lat="50.3464999" lon="6.9258173"/>
      <trkpt lat="50.3466263" lon="6.9258229"/>
      <trkpt lat="50.3466946" lon="6.9258378"/>
      <trkpt lat="50.3467818" lon="6.9258729"/>
      <trkpt lat="50.3468500" lon="6.9259058"/>
      <trkpt lat="50.3469505" lon="6.9259703"/>
      <trkpt lat="50.3477120" lon="6.9264776"/>
      <trkpt lat="50.3479031" lon="6.9265864"/>
      <trkpt lat="50.3480198" lon="6.9266375"/>
      <trkpt lat="50.3481272" lon="6.9266723"/>
      <trkpt lat="50.3482964" lon="6.9267100"/>
      <trkpt lat="50.3488714" lon="6.9268463"/>
      <trkpt lat="50.3490635" lon="6.9269088"/>
      <trkpt lat="50.3492061" lon="6.9269373"/>
      <trkpt lat="50.3493604" lon="6.9269530"/>
      <trkpt lat="50.3494568" lon="6.9269650"/>
      <trkpt lat="50.3495557" lon="6.9269758"/>
      <trkpt lat="50.3497119" lon="6.9269876"/>
      <trkpt lat="50.3498747" lon="6.9269788"/>
      <trkpt lat="50.3500629" lon="6.9269510"/>
      <trkpt lat="50.3505680" lon="6.9268861"/>
      <trkpt lat="50.3508198" lon="6.9268366"/>
      <trkpt lat="50.3510270" lon="6.9268148"/>
      <trkpt lat="50.3511836" lon="6.9267751"/>
      <trkpt lat="50.3514207" lon="6.9267166"/>
      <trkpt lat="50.3516258" lon="6.9266446"/>
      <trkpt lat="50.3518442" lon="6.9265521"/>
      <trkpt lat="50.3520617" lon="6.9264636"/>
      <trkpt lat="50.3522085" lon="6.9263843"/>
      <trkpt lat="50.3524148" lon="6.9262719"/>
      <trkpt lat="50.3528903" lon="6.9259552"/>
      <trkpt lat="50.3530929" lon="6.9258059"/>
      <trkpt lat="50.3533440" lon="6.9256267"/>
      <trkpt lat="50.3538457" lon="6.9252582"/>
      <trkpt lat="50.3540589" lon="6.9251218"/>
      <trkpt lat="50.3545279" lon="6.9248292"/>
      <trkpt lat="50.3548164" lon="6.9246483"/>
      <trkpt lat="50.3550213" lon="6.9245212"/>
      <trkpt lat="50.3554158" lon="6.9242833"/>
      <trkpt lat="50.3555447" lon="6.9241979"/>
      <trkpt lat="50.3556528" lon="6.9241180"/>
      <trkpt lat="50.3557850" lon="6.9240161"/>
      <trkpt lat="50.3559361" lon="6.9238758"/>
      <trkpt lat="50.3561146" lon="6.9236776"/>
      <trkpt lat="50.3562218" lon="6.9235414"/>
      <trkpt lat="50.3563301" lon="6.9233907"/>
      <trkpt lat="50.3564759" lon="6.9231589"/>
      <trkpt lat="50.3566851" lon="6.9227554"/>
      <trkpt lat="50.3567291" lon="6.9226446"/>
      <trkpt lat="50.3567984" lon="6.9224703"/>
      <trkpt lat="50.3568596" lon="6.9222978"/>
      <trkpt lat="50.3569180" lon="6.9221102"/>
      <trkpt lat="50.3569869" lon="6.9218753"/>
      <trkpt lat="50.3573390" lon="6.9206498"/>
      <trkpt lat="50.3573871" lon="6.9204898"/>
      <trkpt lat="50.3574215" lon="6.9203980"/>
      <trkpt lat="50.3574769" lon="6.9202839"/>
      <trkpt lat="50.3575358" lon="6.9201928"/>
      <trkpt lat="50.3575864" lon="6.9201354"/>
      <trkpt lat="50.3576358" lon="6.9200908"/>
      <trkpt lat="50.3577225" lon="6.9200398"/>
      <trkpt lat="50.3577942" lon="6.9200173"/>
      <trkpt lat="50.3578824" lon="6.9200091"/>
      <trkpt lat="50.3579393" lon="6.9200174"/>
      <trkpt lat="50.3579939" lon="6.9200294"/>
      <trkpt lat="50.3580630" lon="6.9200620"/>
      <trkpt lat="50.3581311" lon="6.9201112"/>
      <trkpt lat="50.3581975" lon="6.9201767"/>
      <trkpt lat="50.3582600" lon="6.9202640"/>
      <trkpt lat="50.3583260" lon="6.9203826"/>
      <trkpt lat="50.3583743" lon="6.9205116"/>
      <trkpt lat="50.3584196" lon="6.9206661"/>
      <trkpt lat="50.3586738" lon="6.9216438"/>
      <trkpt lat="50.3588445" lon="6.9222981"/>
      <trkpt lat="50.3590202" lon="6.9229514"/>
      <trkpt lat="50.3591970" lon="6.9235284"/>
      <trkpt lat="50.3592983" lon="6.9237932"/>
      <trkpt lat="50.3593836" lon="6.9239836"/>
      <trkpt lat="50.3595875" lon="6.9243022"/>
      <trkpt lat="50.3596887" lon="6.9244765"/>
      <trkpt lat="50.3597918" lon="6.9246582"/>
      <trkpt lat="50.3598700" lon="6.9248197"/>
      <trkpt lat="50.3599408" lon="6.9249923"/>
      <trkpt lat="50.3600251" lon="6.9252031"/>
      <trkpt lat="50.3601691" lon="6.9255490"/>
      <trkpt lat="50.3602625" lon="6.9257262"/>
      <trkpt lat="50.3604294" lon="6.9259962"/>
      <trkpt lat="50.3611742" lon="6.9270943"/>
      <trkpt lat="50.3613881" lon="6.9274385"/>
      <trkpt lat="50.3615457" lon="6.9277273"/>
      <trkpt lat="50.3617002" lon="6.9280404"/>
      <trkpt lat="50.3619039" lon="6.9284265"/>
      <trkpt lat="50.3620536" lon="6.9286755"/>
      <trkpt lat="50.3623205" lon="6.9290531"/>
      <trkpt lat="50.3624846" lon="6.9292588"/>
      <trkpt lat="50.3627466" lon="6.9295174"/>
      <trkpt lat="50.3629459" lon="6.9296587"/>
      <trkpt lat="50.3632478" lon="6.9298513"/>
      <trkpt lat="50.3636430" lon="6.9301003"/>
      <trkpt lat="50.3637835" lon="6.9301944"/>
      <trkpt lat="50.3640158" lon="6.9303471"/>
      <trkpt lat="50.3640744" lon="6.9303796"/>
      <trkpt lat="50.3641411" lon="6.9304066"/>
      <trkpt lat="50.3642155" lon="6.9304239"/>
      <trkpt lat="50.3642690" lon="6.9304248"/>
      <trkpt lat="50.3651036" lon="6.9303693"/>
      <trkpt lat="50.3652039" lon="6.9303918"/>
      <trkpt lat="50.3652782" lon="6.9304231"/>
      <trkpt lat="50.3653494" lon="6.9304640"/>
      <trkpt lat="50.3654282" lon="6.9305254"/>
      <trkpt lat="50.3655136" lon="6.9306133"/>
      <trkpt lat="50.3655937" lon="6.9307336"/>
      <trkpt lat="50.3656556" lon="6.9308645"/>
      <trkpt lat="50.3656926" lon="6.9309604"/>
      <trkpt lat="50.3657989" lon="6.9312191"/>
      <trkpt lat="50.3658441" lon="6.9313160"/>
      <trkpt lat="50.3658922" lon="6.9313914"/>
      <trkpt lat="50.3659453" lon="6.9314524"/>
      <trkpt lat="50.3660073" lon="6.9315088"/>
      <trkpt lat="50.3660918" lon="6.9315687"/>
      <trkpt lat="50.3661673" lon="6.9316145"/>
      <trkpt lat="50.3662466" lon="6.9316494"/>
      <trkpt lat="50.3663217" lon="6.9316499"/>
      <trkpt lat="50.3663759" lon="6.9316273"/>
      <trkpt lat="50.3664326" lon="6.9315847"/>
      <trkpt lat="50.3664881" lon="6.9315194"/>
      <trkpt lat="50.3665381" lon="6.9314422"/>
      <trkpt lat="50.3666015" lon="6.9313439"/>
      <trkpt lat="50.3666455" lon="6.9312899"/>
      <trkpt lat="50.3667101" lon="6.9312382"/>
      <trkpt lat="50.3667689" lon="6.9312112"/>
      <trkpt lat="50.3668377" lon="6.9311996"/>
      <trkpt lat="50.3669047" lon="6.9312085"/>
      <trkpt lat="50.3669620" lon="6.9312263"/>
      <trkpt lat="50.3670268" lon="6.9312706"/>
      <trkpt lat="50.3670810" lon="6.9313330"/>
      <trkpt lat="50.3671310" lon="6.9314038"/>
      <trkpt lat="50.3672939" lon="6.9316566"/>
      <trkpt lat="50.3674604" lon="6.9319367"/>
      <trkpt lat="50.3675983" lon="6.9321997"/>
      <trkpt lat="50.3679011" lon="6.9328337"/>
      <trkpt lat="50.3681664" lon="6.9333875"/>
      <trkpt lat="50.3682366" lon="6.9335179"/>
      <trkpt lat="50.3683198" lon="6.9336565"/>
      <trkpt lat="50.3684889" lon="6.9338949"/>
      <trkpt lat="50.3690121" lon="6.9345979"/>
      <trkpt lat="50.3691952" lon="6.9348776"/>
      <trkpt lat="50.3695641" lon="6.9354901"/>
      <trkpt lat="50.3699443" lon="6.9361113"/>
      <trkpt lat="50.3701490" lon="6.9364404"/>
      <trkpt lat="50.3702299" lon="6.9365545"/>
      <trkpt lat="50.3703069" lon="6.9366510"/>
      <trkpt lat="50.3709831" lon="6.9373993"/>
      <trkpt lat="50.3710844" lon="6.9374975"/>
      <trkpt lat="50.3711671" lon="6.9375636"/>
      <trkpt lat="50.3712316" lon="6.9376049"/>
      <trkpt lat="50.3713213" lon="6.9376537"/>
      <trkpt lat="50.3714125" lon="6.9376874"/>
      <trkpt lat="50.3714943" lon="6.9377112"/>
      <trkpt lat="50.3715873" lon="6.9377226"/>
      <trkpt lat="50.3716596" lon="6.9377249"/>
      <trkpt lat="50.3717375" lon="6.9377163"/>
      <trkpt lat="50.3718137" lon="6.9377006"/>
      <trkpt lat="50.3718823" lon="6.9376780"/>
      <trkpt lat="50.3719546" lon="6.9376517"/>
      <trkpt lat="50.3724741" lon="6.9374454"/>
      <trkpt lat="50.3726569" lon="6.9373743"/>
      <trkpt lat="50.3728038" lon="6.9373249"/>
      <trkpt lat="50.3730133" lon="6.9372307"/>
      <trkpt lat="50.3730619" lon="6.9371989"/>
      <trkpt lat="50.3731022" lon="6.9371618"/>
      <trkpt lat="50.3731410" lon="6.9371225"/>
      <trkpt lat="50.3731759" lon="6.9370729"/>
      <trkpt lat="50.3732020" lon="6.9370272"/>
      <trkpt lat="50.3732289" lon="6.9369729"/>
      <trkpt lat="50.3732522" lon="6.9369066"/>
      <trkpt lat="50.3732703" lon="6.9368542"/>
      <trkpt lat="50.3732896" lon="6.9367779"/>
      <trkpt lat="50.3733039" lon="6.9366985"/>
      <trkpt lat="50.3733146" lon="6.9366090"/>
      <trkpt lat="50.3733164" lon="6.9365179"/>
      <trkpt lat="50.3733138" lon="6.9363973"/>
      <trkpt lat="50.3733100" lon="6.9362843"/>
      <trkpt lat="50.3733008" lon="6.9360554"/>
      <trkpt lat="50.3732967" lon="6.9359439"/>
      <trkpt lat="50.3732980" lon="6.9358425"/>
      <trkpt lat="50.3733058" lon="6.9357647"/>
      <trkpt lat="50.3733180" lon="6.9356820"/>
      <trkpt lat="50.3733327" lon="6.9356132"/>
      <trkpt lat="50.3733486" lon="6.9355579"/>
      <trkpt lat="50.3733719" lon="6.9354869"/>
      <trkpt lat="50.3734016" lon="6.9354048"/>
      <trkpt lat="50.3736350" lon="6.9347837"/>
      <trkpt lat="50.3737188" lon="6.9345933"/>
      <trkpt lat="50.3740316" lon="6.9339379"/>
      <trkpt lat="50.3741004" lon="6.9338109"/>
      <trkpt lat="50.3741530" lon="6.9337375"/>
      <trkpt lat="50.3741946" lon="6.9336980"/>
      <trkpt lat="50.3742381" lon="6.9336720"/>
      <trkpt lat="50.3742799" lon="6.9336456"/>
      <trkpt lat="50.3743179" lon="6.9336281"/>
      <trkpt lat="50.3743548" lon="6.9336219"/>
      <trkpt lat="50.3743898" lon="6.9336186"/>
      <trkpt lat="50.3744327" lon="6.9336215"/>
      <trkpt lat="50.3744736" lon="6.9336274"/>
      <trkpt lat="50.3745521" lon="6.9336552"/>
      <trkpt lat="50.3745996" lon="6.9336893"/>
      <trkpt lat="50.3746612" lon="6.9337594"/>
      <trkpt lat="50.3747019" lon="6.9338250"/>
      <trkpt lat="50.3747536" lon="6.9339349"/>
      <trkpt lat="50.3747957" lon="6.9340570"/>
      <trkpt lat="50.3749516" lon="6.9345677"/>
      <trkpt lat="50.3750881" lon="6.9349726"/>
      <trkpt lat="50.3751422" lon="6.9351266"/>
      <trkpt lat="50.3751962" lon="6.9352853"/>
      <trkpt lat="50.3752690" lon="6.9354730"/>
      <trkpt lat="50.3753265" lon="6.9356083"/>
      <trkpt lat="50.3753605" lon="6.9356828"/>
      <trkpt lat="50.3753929" lon="6.9357498"/>
      <trkpt lat="50.3756001" lon="6.9361361"/>
      <trkpt lat="50.3756806" lon="6.9362828"/>
      <trkpt lat="50.3757481" lon="6.9364006"/>
      <trkpt lat="50.3757924" lon="6.9364718"/>
      <trkpt lat="50.3758420" lon="6.9365427"/>
      <trkpt lat="50.3758967" lon="6.9366032"/>
      <trkpt lat="50.3759541" lon="6.9366543"/>
      <trkpt lat="50.3760218" lon="6.9367007"/>
      <trkpt lat="50.3760650" lon="6.9367273"/>
      <trkpt lat="50.3761085" lon="6.9367465"/>
      <trkpt lat="50.3761612" lon="6.9367641"/>
      <trkpt lat="50.3762111" lon="6.9367710"/>
      <trkpt lat="50.3762179" lon="6.9367719"/>
      <trkpt lat="50.3764242" lon="6.9367891"/>
      <trkpt lat="50.3764788" lon="6.9367958"/>
      <trkpt lat="50.3765339" lon="6.9368148"/>
      <trkpt lat="50.3765833" lon="6.9368339"/>
      <trkpt lat="50.3766296" lon="6.9368680"/>
      <trkpt lat="50.3766757" lon="6.9368988"/>
      <trkpt lat="50.3767326" lon="6.9369493"/>
      <trkpt lat="50.3767743" lon="6.9369891"/>
      <trkpt lat="50.3773586" lon="6.9375474"/>
      <trkpt lat="50.3774115" lon="6.9376044"/>
      <trkpt lat="50.3774647" lon="6.9376633"/>
      <trkpt lat="50.3775082" lon="6.9377225"/>
      <trkpt lat="50.3775506" lon="6.9377836"/>
      <trkpt lat="50.3775825" lon="6.9378330"/>
      <trkpt lat="50.3776153" lon="6.9378864"/>
      <trkpt lat="50.3776526" lon="6.9379587"/>
      <trkpt lat="50.3776858" lon="6.9380248"/>
      <trkpt lat="50.3777195" lon="6.9381112"/>
      <trkpt lat="50.3777565" lon="6.9382103"/>
      <trkpt lat="50.3777926" lon="6.9383387"/>
      <trkpt lat="50.3778208" lon="6.9384531"/>
      <trkpt lat="50.3778681" lon="6.9386741"/>
      <trkpt lat="50.3778790" lon="6.9387448"/>
      <trkpt lat="50.3778854" lon="6.9388142"/>
      <trkpt lat="50.3778888" lon="6.9388881"/>
      <trkpt lat="50.3778897" lon="6.9389592"/>
      <trkpt lat="50.3778869" lon="6.9390311"/>
      <trkpt lat="50.3778831" lon="6.9390930"/>
      <trkpt lat="50.3778521" lon="6.9393639"/>
      <trkpt lat="50.3778170" lon="6.9396327"/>
      <trkpt lat="50.3778005" lon="6.9397143"/>
      <trkpt lat="50.3777854" lon="6.9397812"/>
      <trkpt lat="50.3777684" lon="6.9398448"/>
      <trkpt lat="50.3777510" lon="6.9399030"/>
      <trkpt lat="50.3777301" lon="6.9399644"/>
      <trkpt lat="50.3776993" lon="6.9400501"/>
      <trkpt lat="50.3774515" lon="6.9406717"/>
      <trkpt lat="50.3774057" lon="6.9407741"/>
      <trkpt lat="50.3768315" lon="6.9420539"/>
      <trkpt lat="50.3767931" lon="6.9421347"/>
      <trkpt lat="50.3767455" lon="6.9422313"/>
      <trkpt lat="50.3766990" lon="6.9423017"/>
      <trkpt lat="50.3766630" lon="6.9423480"/>
      <trkpt lat="50.3766061" lon="6.9423994"/>
      <trkpt lat="50.3765602" lon="6.9424359"/>
      <trkpt lat="50.3765033" lon="6.9424683"/>
      <trkpt lat="50.3763229" lon="6.9425668"/>
      <trkpt lat="50.3762699" lon="6.9426068"/>
      <trkpt lat="50.3762159" lon="6.9426677"/>
      <trkpt lat="50.3761949" lon="6.9427028"/>
      <trkpt lat="50.3761711" lon="6.9427464"/>
      <trkpt lat="50.3761504" lon="6.9428016"/>
      <trkpt lat="50.3761345" lon="6.9428568"/>
      <trkpt lat="50.3761173" lon="6.9429433"/>
      <trkpt lat="50.3761127" lon="6.9429930"/>
      <trkpt lat="50.3761097" lon="6.9430528"/>
      <trkpt lat="50.3761165" lon="6.9431138"/>
      <trkpt lat="50.3761297" lon="6.9431673"/>
      <trkpt lat="50.3761478" lon="6.9432067"/>
      <trkpt lat="50.3761707" lon="6.9432437"/>
      <trkpt lat="50.3762188" lon="6.9433032"/>
      <trkpt lat="50.3762656" lon="6.9433478"/>
      <trkpt lat="50.3764175" lon="6.9434802"/>
      <trkpt lat="50.3764768" lon="6.9435459"/>
      <trkpt lat="50.3765214" lon="6.9436021"/>
      <trkpt lat="50.3765557" lon="6.9436604"/>
      <trkpt lat="50.3765810" lon="6.9437105"/>
      <trkpt lat="50.3766062" lon="6.9437757"/>
      <trkpt lat="50.3766328" lon="6.9438564"/>
      <trkpt lat="50.3766541" lon="6.9439394"/>
      <trkpt lat="50.3766707" lon="6.9440273"/>
      <trkpt lat="50.3766857" lon="6.9441302"/>
      <trkpt lat="50.3766992" lon="6.9442456"/>
      <trkpt lat="50.3767073" lon="6.9443381"/>
      <trkpt lat="50.3767244" lon="6.9445261"/>
      <trkpt lat="50.3767370" lon="6.9446895"/>
      <trkpt lat="50.3767588" lon="6.9450772"/>
      <trkpt lat="50.3767773" lon="6.9456287"/>
      <trkpt lat="50.3767987" lon="6.9462454"/>
      <trkpt lat="50.3768173" lon="6.9468351"/>
      <trkpt lat="50.3768252" lon="6.9470665"/>
      <trkpt lat="50.3768283" lon="6.9472465"/>
      <trkpt lat="50.3768248" lon="6.9473404"/>
      <trkpt lat="50.3768195" lon="6.9474339"/>
      <trkpt lat="50.3768117" lon="6.9475204"/>
      <trkpt lat="50.3768013" lon="6.9476114"/>
      <trkpt lat="50.3767882" lon="6.9477074"/>
      <trkpt lat="50.3767770" lon="6.9477807"/>
      <trkpt lat="50.3766263" lon="6.9487327"/>
      <trkpt lat="50.3765734" lon="6.9490563"/>
      <trkpt lat="50.3765566" lon="6.9491720"/>
      <trkpt lat="50.3765506" lon="6.9492594"/>
      <trkpt lat="50.3765493" lon="6.9493301"/>
      <trkpt lat="50.3765533" lon="6.9494044"/>
      <trkpt lat="50.3765649" lon="6.9494906"/>
      <trkpt lat="50.3765860" lon="6.9495765"/>
      <trkpt lat="50.3766136" lon="6.9496563"/>
      <trkpt lat="50.3766520" lon="6.9497410"/>
      <trkpt lat="50.3766927" lon="6.9498095"/>
      <trkpt lat="50.3767335" lon="6.9498629"/>
      <trkpt lat="50.3768618" lon="6.9499778"/>
      <trkpt lat="50.3769996" lon="6.9501051"/>
      <trkpt lat="50.3771687" lon="6.9502582"/>
      <trkpt lat="50.3773392" lon="6.9503488"/>
      <trkpt lat="50.3774456" lon="6.9503862"/>
      <trkpt lat="50.3775001" lon="6.9503968"/>
      <trkpt lat="50.3775797" lon="6.9504047"/>
      <trkpt lat="50.3776714" lon="6.9504042"/>
      <trkpt lat="50.3777697" lon="6.9503958"/>
      <trkpt lat="50.3779313" lon="6.9503746"/>
      <trkpt lat="50.3780933" lon="6.9503624"/>
      <trkpt lat="50.3781799" lon="6.9503725"/>
      <trkpt lat="50.3782354" lon="6.9503922"/>
      <trkpt lat="50.3782856" lon="6.9504282"/>
      <trkpt lat="50.3783241" lon="6.9504692"/>
      <trkpt lat="50.3783665" lon="6.9505327"/>
      <trkpt lat="50.3784116" lon="6.9506232"/>
      <trkpt lat="50.3784506" lon="6.9507301"/>
      <trkpt lat="50.3784834" lon="6.9508320"/>
      <trkpt lat="50.3785292" lon="6.9509776"/>
      <trkpt lat="50.3785901" lon="6.9511812"/>
      <trkpt lat="50.3786772" lon="6.9514983"/>
      <trkpt lat="50.3787675" lon="6.9518550"/>
      <trkpt lat="50.3788019" lon="6.9519947"/>
      <trkpt lat="50.3789338" lon="6.9525578"/>
      <trkpt lat="50.3790194" lon="6.9529574"/>
      <trkpt lat="50.3790870" lon="6.9532793"/>
      <trkpt lat="50.3791640" lon="6.9536856"/>
      <trkpt lat="50.3792088" lon="6.9539443"/>
      <trkpt lat="50.3792452" lon="6.9541614"/>
      <trkpt lat="50.3792850" lon="6.9544350"/>
      <trkpt lat="50.3793788" lon="6.9551295"/>
      <trkpt lat="50.3796526" lon="6.9571482"/>
      <trkpt lat="50.3796969" lon="6.9573929"/>
      <trkpt lat="50.3797362" lon="6.9575476"/>
      <trkpt lat="50.3797716" lon="6.9576469"/>
      <trkpt lat="50.3798301" lon="6.9577893"/>
      <trkpt lat="50.3799098" lon="6.9579475"/>
      <trkpt lat="50.3807016" lon="6.9596111"/>
      <trkpt lat="50.3808272" lon="6.9599129"/>
      <trkpt lat="50.3808556" lon="6.9600041"/>
      <trkpt lat="50.3808761" lon="6.9600948"/>
      <trkpt lat="50.3808933" lon="6.9602111"/>
      <trkpt lat="50.3809024" lon="6.9602949"/>
      <trkpt lat="50.3809131" lon="6.9605126"/>
      <trkpt lat="50.3809059" lon="6.9606337"/>
      <trkpt lat="50.3808968" lon="6.9607031"/>
      <trkpt lat="50.3808806" lon="6.9607853"/>
      <trkpt lat="50.3808507" lon="6.9608703"/>
      <trkpt lat="50.3808183" lon="6.9609497"/>
      <trkpt lat="50.3807747" lon="6.9610284"/>
      <trkpt lat="50.3807027" lon="6.9611184"/>
      <trkpt lat="50.3806481" lon="6.9611668"/>
      <trkpt lat="50.3805975" lon="6.9612013"/>
      <trkpt lat="50.3804477" lon="6.9612642"/>
      <trkpt lat="50.3803550" lon="6.9612928"/>
      <trkpt lat="50.3801557" lon="6.9613560"/>
      <trkpt lat="50.3800376" lon="6.9613733"/>
      <trkpt lat="50.3799142" lon="6.9613802"/>
      <trkpt lat="50.3797924" lon="6.9613652"/>
      <trkpt lat="50.3795267" lon="6.9613297"/>
      <trkpt lat="50.3792408" lon="6.9612881"/>
      <trkpt lat="50.3789693" lon="6.9612526"/>
      <trkpt lat="50.3786852" lon="6.9612428"/>
      <trkpt lat="50.3784537" lon="6.9612546"/>
      <trkpt lat="50.3781833" lon="6.9612818"/>
      <trkpt lat="50.3776318" lon="6.9613277"/>
      <trkpt lat="50.3774304" lon="6.9613639"/>
      <trkpt lat="50.3772527" lon="6.9614087"/>
      <trkpt lat="50.3770817" lon="6.9614808"/>
      <trkpt lat="50.3766946" lon="6.9616853"/>
      <trkpt lat="50.3765128" lon="6.9618041"/>
      <trkpt lat="50.3763874" lon="6.9619026"/>
      <trkpt lat="50.3763226" lon="6.9619640"/>
      <trkpt lat="50.3762564" lon="6.9620339"/>
      <trkpt lat="50.3760835" lon="6.9622493"/>
      <trkpt lat="50.3758917" lon="6.9625189"/>
      <trkpt lat="50.3757272" lon="6.9627606"/>
      <trkpt lat="50.3756440" lon="6.9629028"/>
      <trkpt lat="50.3755388" lon="6.9631254"/>
      <trkpt lat="50.3753319" lon="6.9636168"/>
      <trkpt lat="50.3752138" lon="6.9639005"/>
      <trkpt lat="50.3751522" lon="6.9640965"/>
      <trkpt lat="50.3749779" lon="6.9647568"/>
      <trkpt lat="50.3745754" lon="6.9662788"/>
      <trkpt lat="50.3745093" lon="6.9665454"/>
      <trkpt lat="50.3744759" lon="6.9667454"/>
      <trkpt lat="50.3744549" lon="6.9669605"/>
      <trkpt lat="50.3744486" lon="6.9671560"/>
      <trkpt lat="50.3744527" lon="6.9674084"/>
      <trkpt lat="50.3744921" lon="6.9690789"/>
      <trkpt lat="50.3744883" lon="6.9693936"/>
      <trkpt lat="50.3744533" lon="6.9699311"/>
      <trkpt lat="50.3743769" lon="6.9709749"/>
      <trkpt lat="50.3742845" lon="6.9722114"/>
      <trkpt lat="50.3742499" lon="6.9726817"/>
      <trkpt lat="50.3742117" lon="6.9730141"/>
      <trkpt lat="50.3740579" lon="6.9738850"/>
      <trkpt lat="50.3738469" lon="6.9750276"/>
      <trkpt lat="50.3738173" lon="6.9751568"/>
      <trkpt lat="50.3737836" lon="6.9752902"/>
      <trkpt lat="50.3737431" lon="6.9754302"/>
      <trkpt lat="50.3736972" lon="6.9755765"/>
      <trkpt lat="50.3736339" lon="6.9757522"/>
      <trkpt lat="50.3735955" lon="6.9758487"/>
      <trkpt lat="50.3735556" lon="6.9759430"/>
      <trkpt lat="50.3734862" lon="6.9760961"/>
      <trkpt lat="50.3734154" lon="6.9762385"/>
      <trkpt lat="50.3731482" lon="6.9767223"/>
      <trkpt lat="50.3730620" lon="6.9768907"/>
      <trkpt lat="50.3729772" lon="6.9770698"/>
      <trkpt lat="50.3728896" lon="6.9772742"/>
      <trkpt lat="50.3728085" lon="6.9774917"/>
      <trkpt lat="50.3727069" lon="6.9777995"/>
      <trkpt lat="50.3723983" lon="6.9788332"/>
      <trkpt lat="50.3723021" lon="6.9791899"/>
      <trkpt lat="50.3722862" lon="6.9792601"/>
      <trkpt lat="50.3722730" lon="6.9793282"/>
      <trkpt lat="50.3722621" lon="6.9794110"/>
      <trkpt lat="50.3722539" lon="6.9794873"/>
      <trkpt lat="50.3722501" lon="6.9795866"/>
      <trkpt lat="50.3722504" lon="6.9796901"/>
      <trkpt lat="50.3722562" lon="6.9798158"/>
      <trkpt lat="50.3722675" lon="6.9799738"/>
      <trkpt lat="50.3723229" lon="6.9804693"/>
      <trkpt lat="50.3723599" lon="6.9806546"/>
      <trkpt lat="50.3724318" lon="6.9808906"/>
      <trkpt lat="50.3725130" lon="6.9811346"/>
      <trkpt lat="50.3726665" lon="6.9815750"/>
      <trkpt lat="50.3728174" lon="6.9820036"/>
      <trkpt lat="50.3729537" lon="6.9823467"/>
      <trkpt lat="50.3730955" lon="6.9826484"/>
      <trkpt lat="50.3735391" lon="6.9835504"/>
      <trkpt lat="50.3737749" lon="6.9839726"/>
      <trkpt lat="50.3739009" lon="6.9841767"/>
      <trkpt lat="50.3740400" lon="6.9844249"/>
      <trkpt lat="50.3741366" lon="6.9846691"/>
      <trkpt lat="50.3741911" lon="6.9848665"/>
      <trkpt lat="50.3742244" lon="6.9850441"/>
      <trkpt lat="50.3742799" lon="6.9855200"/>
      <trkpt lat="50.3744278" lon="6.9869267"/>
      <trkpt lat="50.3744760" lon="6.9875301"/>
      <trkpt lat="50.3745090" lon="6.9877746"/>
      <trkpt lat="50.3745749" lon="6.9881177"/>
      <trkpt lat="50.3746399" lon="6.9884966"/>
      <trkpt lat="50.3746581" lon="6.9886615"/>
      <trkpt lat="50.3746593" lon="6.9887235"/>
      <trkpt lat="50.3746557" lon="6.9887880"/>
      <trkpt lat="50.3746294" lon="6.9889141"/>
      <trkpt lat="50.3746077" lon="6.9889810"/>
      <trkpt lat="50.3745860" lon="6.9890352"/>
      <trkpt lat="50.3745537" lon="6.9890981"/>
      <trkpt lat="50.3745198" lon="6.9891508"/>
      <trkpt lat="50.3744809" lon="6.9891983"/>
      <trkpt lat="50.3744420" lon="6.9892383"/>
      <trkpt lat="50.3743816" lon="6.9892784"/>
      <trkpt lat="50.3743340" lon="6.9892931"/>
      <trkpt lat="50.3743301" lon="6.9892949"/>
      <trkpt lat="50.3742257" lon="6.9893016"/>
      <trkpt lat="50.3741144" lon="6.9892790"/>
      <trkpt lat="50.3739997" lon="6.9892332"/>
      <trkpt lat="50.3738894" lon="6.9891532"/>
      <trkpt lat="50.3738167" lon="6.9890714"/>
      <trkpt lat="50.3737438" lon="6.9889521"/>
      <trkpt lat="50.3734333" lon="6.9883673"/>
      <trkpt lat="50.3732609" lon="6.9879967"/>
      <trkpt lat="50.3731759" lon="6.9877990"/>
      <trkpt lat="50.3730785" lon="6.9876086"/>
      <trkpt lat="50.3729806" lon="6.9874538"/>
      <trkpt lat="50.3728797" lon="6.9872994"/>
      <trkpt lat="50.3727561" lon="6.9870715"/>
      <trkpt lat="50.3726326" lon="6.9867738"/>
      <trkpt lat="50.3725351" lon="6.9865740"/>
      <trkpt lat="50.3724189" lon="6.9863418"/>
      <trkpt lat="50.3723461" lon="6.9861575"/>
      <trkpt lat="50.3722963" lon="6.9860140"/>
      <trkpt lat="50.3722687" lon="6.9859301"/>
      <trkpt lat="50.3722049" lon="6.9857538"/>
      <trkpt lat="50.3721630" lon="6.9856637"/>
      <trkpt lat="50.3721140" lon="6.9856006"/>
      <trkpt lat="50.3720681" lon="6.9855603"/>
      <trkpt lat="50.3720384" lon="6.9855401"/>
      <trkpt lat="50.3719967" lon="6.9855240"/>
      <trkpt lat="50.3719589" lon="6.9855154"/>
      <trkpt lat="50.3718951" lon="6.9855207"/>
      <trkpt lat="50.3718522" lon="6.9855345"/>
      <trkpt lat="50.3718150" lon="6.9855543"/>
      <trkpt lat="50.3717852" lon="6.9855797"/>
      <trkpt lat="50.3717554" lon="6.9856112"/>
      <trkpt lat="50.3717188" lon="6.9856611"/>
      <trkpt lat="50.3716972" lon="6.9857004"/>
      <trkpt lat="50.3716785" lon="6.9857426"/>
      <trkpt lat="50.3716646" lon="6.9857847"/>
      <trkpt lat="50.3716527" lon="6.9858327"/>
      <trkpt lat="50.3716403" lon="6.9859229"/>
      <trkpt lat="50.3716377" lon="6.9860131"/>
      <trkpt lat="50.3716438" lon="6.9860932"/>
      <trkpt lat="50.3716599" lon="6.9861704"/>
      <trkpt lat="50.3716801" lon="6.9862365"/>
      <trkpt lat="50.3716980" lon="6.9862777"/>
      <trkpt lat="50.3717197" lon="6.9863204"/>
      <trkpt lat="50.3717559" lon="6.9863712"/>
      <trkpt lat="50.3717858" lon="6.9864019"/>
      <trkpt lat="50.3718167" lon="6.9864267"/>
      <trkpt lat="50.3719076" lon="6.9864786"/>
      <trkpt lat="50.3720457" lon="6.9865599"/>
      <trkpt lat="50.3721555" lon="6.9866447"/>
      <trkpt lat="50.3722164" lon="6.9867031"/>
      <trkpt lat="50.3722613" lon="6.9867639"/>
      <trkpt lat="50.3723032" lon="6.9868258"/>
      <trkpt lat="50.3723906" lon="6.9869824"/>
      <trkpt lat="50.3726177" lon="6.9874308"/>
      <trkpt lat="50.3726891" lon="6.9875788"/>
      <trkpt lat="50.3727265" lon="6.9876710"/>
      <trkpt lat="50.3727664" lon="6.9878063"/>
      <trkpt lat="50.3728030" lon="6.9879518"/>
      <trkpt lat="50.3732391" lon="6.9900730"/>
      <trkpt lat="50.3732789" lon="6.9903361"/>
      <trkpt lat="50.3733057" lon="6.9906248"/>
      <trkpt lat="50.3733205" lon="6.9908304"/>
      <trkpt lat="50.3733586" lon="6.9913530"/>
      <trkpt lat="50.3733696" lon="6.9914688"/>
      <trkpt lat="50.3733902" lon="6.9915993"/>
      <trkpt lat="50.3734091" lon="6.9916719"/>
      <trkpt lat="50.3734279" lon="6.9917266"/>
      <trkpt lat="50.3734622" lon="6.9918192"/>
      <trkpt lat="50.3735044" lon="6.9919117"/>
      <trkpt lat="50.3735921" lon="6.9920894"/>
      <trkpt lat="50.3740057" lon="6.9928938"/>
      <trkpt lat="50.3741000" lon="6.9930453"/>
      <trkpt lat="50.3742348" lon="6.9932340"/>
      <trkpt lat="50.3743250" lon="6.9933403"/>
      <trkpt lat="50.3746954" lon="6.9937282"/>
      <trkpt lat="50.3748275" lon="6.9938518"/>
      <trkpt lat="50.3749009" lon="6.9939001"/>
      <trkpt lat="50.3749502" lon="6.9939200"/>
      <trkpt lat="50.3749892" lon="6.9939329"/>
      <trkpt lat="50.3750275" lon="6.9939404"/>
      <trkpt lat="50.3750723" lon="6.9939380"/>
      <trkpt lat="50.3751049" lon="6.9939355"/>
      <trkpt lat="50.3751500" lon="6.9939285"/>
      <trkpt lat="50.3751999" lon="6.9939189"/>
      <trkpt lat="50.3752650" lon="6.9938989"/>
      <trkpt lat="50.3755506" lon="6.9938091"/>
      <trkpt lat="50.3756503" lon="6.9937877"/>
      <trkpt lat="50.3757101" lon="6.9937882"/>
      <trkpt lat="50.3757526" lon="6.9937942"/>
      <trkpt lat="50.3758095" lon="6.9938091"/>
      <trkpt lat="50.3758572" lon="6.9938310"/>
      <trkpt lat="50.3759328" lon="6.9938905"/>
      <trkpt lat="50.3759995" lon="6.9939564"/>
      <trkpt lat="50.3762049" lon="6.9941720"/>
      <trkpt lat="50.3766241" lon="6.9946150"/>
      <trkpt lat="50.3766807" lon="6.9946741"/>
      <trkpt lat="50.3767602" lon="6.9947710"/>
      <trkpt lat="50.3768092" lon="6.9948545"/>
      <trkpt lat="50.3768384" lon="6.9949183"/>
      <trkpt lat="50.3768681" lon="6.9949989"/>
      <trkpt lat="50.3768954" lon="6.9950890"/>
      <trkpt lat="50.3769172" lon="6.9952170"/>
      <trkpt lat="50.3769326" lon="6.9953376"/>
      <trkpt lat="50.3769337" lon="6.9954495"/>
      <trkpt lat="50.3769215" lon="6.9956005"/>
      <trkpt lat="50.3768990" lon="6.9957386"/>
      <trkpt lat="50.3768769" lon="6.9958213"/>
      <trkpt lat="50.3768353" lon="6.9959563"/>
      <trkpt lat="50.3766315" lon="6.9965631"/>
      <trkpt lat="50.3765903" lon="6.9967084"/>
      <trkpt lat="50.3765653" lon="6.9968334"/>
      <trkpt lat="50.3765420" lon="6.9969753"/>
      <trkpt lat="50.3765219" lon="6.9971197"/>
      <trkpt lat="50.3764762" lon="6.9974813"/>
      <trkpt lat="50.3764515" lon="6.9976607"/>
      <trkpt lat="50.3764224" lon="6.9978341"/>
      <trkpt lat="50.3762270" lon="6.9988279"/>
      <trkpt lat="50.3761506" lon="6.9990937"/>
      <trkpt lat="50.3761026" lon="6.9992111"/>
      <trkpt lat="50.3760480" lon="6.9993240"/>
      <trkpt lat="50.3759777" lon="6.9994479"/>
      <trkpt lat="50.3759100" lon="6.9995437"/>
      <trkpt lat="50.3758500" lon="6.9996192"/>
      <trkpt lat="50.3757681" lon="6.9997046"/>
      <trkpt lat="50.3755608" lon="6.9999126"/>
      <trkpt lat="50.3754699" lon="7.0000180"/>
      <trkpt lat="50.3753922" lon="7.0001208"/>
      <trkpt lat="50.3753338" lon="7.0002236"/>
      <trkpt lat="50.3752684" lon="7.0003710"/>
      <trkpt lat="50.3752175" lon="7.0005208"/>
      <trkpt lat="50.3751715" lon="7.0006809"/>
      <trkpt lat="50.3751288" lon="7.0008434"/>
      <trkpt lat="50.3751007" lon="7.0009795"/>
      <trkpt lat="50.3750906" lon="7.0010475"/>
      <trkpt lat="50.3750855" lon="7.0011181"/>
      <trkpt lat="50.3750821" lon="7.0012784"/>
      <trkpt lat="50.3750738" lon="7.0015668"/>
      <trkpt lat="50.3750579" lon="7.0017318"/>
      <trkpt lat="50.3750444" lon="7.0018146"/>
      <trkpt lat="50.3750309" lon="7.0018821"/>
      <trkpt lat="50.3750152" lon="7.0019346"/>
      <trkpt lat="50.3749978" lon="7.0019845"/>
      <trkpt lat="50.3749604" lon="7.0020698"/>
      <trkpt lat="50.3749204" lon="7.0021412"/>
      <trkpt lat="50.3748663" lon="7.0022343"/>
      <trkpt lat="50.3742036" lon="7.0031452"/>
      <trkpt lat="50.3739665" lon="7.0034467"/>
      <trkpt lat="50.3738878" lon="7.0035211"/>
      <trkpt lat="50.3738095" lon="7.0035825"/>
      <trkpt lat="50.3737394" lon="7.0036236"/>
      <trkpt lat="50.3736819" lon="7.0036498"/>
      <trkpt lat="50.3736263" lon="7.0036671"/>
      <trkpt lat="50.3735549" lon="7.0036748"/>
      <trkpt lat="50.3734664" lon="7.0036764"/>
      <trkpt lat="50.3734012" lon="7.0036660"/>
      <trkpt lat="50.3733341" lon="7.0036496"/>
      <trkpt lat="50.3732830" lon="7.0036337"/>
      <trkpt lat="50.3732114" lon="7.0035955"/>
      <trkpt lat="50.3731595" lon="7.0035628"/>
      <trkpt lat="50.3730883" lon="7.0035072"/>
      <trkpt lat="50.3729013" lon="7.0033565"/>
      <trkpt lat="50.3726325" lon="7.0031652"/>
      <trkpt lat="50.3723985" lon="7.0030378"/>
      <trkpt lat="50.3721751" lon="7.0029244"/>
      <trkpt lat="50.3720379" lon="7.0028568"/>
      <trkpt lat="50.3719424" lon="7.0028194"/>
      <trkpt lat="50.3718849" lon="7.0028009"/>
      <trkpt lat="50.3718201" lon="7.0027918"/>
      <trkpt lat="50.3717877" lon="7.0027922"/>
      <trkpt lat="50.3717394" lon="7.0027973"/>
      <trkpt lat="50.3716867" lon="7.0028147"/>
      <trkpt lat="50.3716442" lon="7.0028339"/>
      <trkpt lat="50.3715950" lon="7.0028661"/>
      <trkpt lat="50.3715424" lon="7.0029226"/>
      <trkpt lat="50.3714958" lon="7.0029751"/>
      <trkpt lat="50.3713491" lon="7.0031941"/>
      <trkpt lat="50.3712250" lon="7.0033878"/>
      <trkpt lat="50.3711497" lon="7.0035490"/>
      <trkpt lat="50.3710682" lon="7.0037715"/>
      <trkpt lat="50.3710297" lon="7.0039391"/>
      <trkpt lat="50.3710090" lon="7.0040558"/>
      <trkpt lat="50.3709818" lon="7.0042880"/>
      <trkpt lat="50.3709561" lon="7.0045279"/>
      <trkpt lat="50.3709183" lon="7.0048126"/>
      <trkpt lat="50.3708984" lon="7.0049086"/>
      <trkpt lat="50.3708709" lon="7.0050076"/>
      <trkpt lat="50.3708372" lon="7.0050838"/>
      <trkpt lat="50.3708015" lon="7.0051511"/>
      <trkpt lat="50.3707471" lon="7.0052269"/>
      <trkpt lat="50.3706846" lon="7.0052875"/>
      <trkpt lat="50.3706209" lon="7.0053287"/>
      <trkpt lat="50.3705610" lon="7.0053518"/>
      <trkpt lat="50.3696971" lon="7.0054877"/>
      <trkpt lat="50.3692818" lon="7.0055561"/>
      <trkpt lat="50.3692337" lon="7.0055588"/>
      <trkpt lat="50.3691825" lon="7.0055538"/>
      <trkpt lat="50.3691170" lon="7.0055367"/>
      <trkpt lat="50.3690684" lon="7.0055175"/>
      <trkpt lat="50.3690264" lon="7.0054916"/>
      <trkpt lat="50.3689842" lon="7.0054549"/>
      <trkpt lat="50.3689191" lon="7.0053930"/>
      <trkpt lat="50.3688722" lon="7.0053327"/>
      <trkpt lat="50.3688150" lon="7.0052364"/>
      <trkpt lat="50.3687667" lon="7.0051156"/>
      <trkpt lat="50.3687318" lon="7.0049962"/>
      <trkpt lat="50.3687102" lon="7.0048635"/>
      <trkpt lat="50.3686977" lon="7.0046987"/>
      <trkpt lat="50.3686986" lon="7.0044655"/>
      <trkpt lat="50.3687239" lon="7.0035582"/>
      <trkpt lat="50.3687703" lon="7.0028591"/>
      <trkpt lat="50.3688122" lon="7.0021670"/>
      <trkpt lat="50.3688067" lon="7.0019787"/>
      <trkpt lat="50.3687929" lon="7.0018440"/>
      <trkpt lat="50.3687648" lon="7.0017259"/>
      <trkpt lat="50.3687433" lon="7.0016542"/>
      <trkpt lat="50.3687128" lon="7.0015817"/>
      <trkpt lat="50.3686785" lon="7.0015138"/>
      <trkpt lat="50.3686410" lon="7.0014583"/>
      <trkpt lat="50.3685953" lon="7.0014081"/>
      <trkpt lat="50.3685479" lon="7.0013619"/>
      <trkpt lat="50.3684923" lon="7.0013265"/>
      <trkpt lat="50.3683107" lon="7.0012584"/>
      <trkpt lat="50.3681955" lon="7.0012051"/>
      <trkpt lat="50.3681166" lon="7.0011666"/>
      <trkpt lat="50.3680433" lon="7.0011121"/>
      <trkpt lat="50.3679763" lon="7.0010495"/>
      <trkpt lat="50.3678235" lon="7.0008721"/>
      <trkpt lat="50.3673438" lon="7.0002887"/>
      <trkpt lat="50.3671762" lon="7.0000889"/>
      <trkpt lat="50.3671061" lon="7.0000197"/>
      <trkpt lat="50.3670478" lon="6.9999734"/>
      <trkpt lat="50.3667454" lon="6.9997678"/>
      <trkpt lat="50.3664307" lon="6.9995861"/>
      <trkpt lat="50.3663342" lon="6.9995417"/>
      <trkpt lat="50.3662743" lon="6.9995177"/>
      <trkpt lat="50.3661861" lon="6.9994971"/>
      <trkpt lat="50.3660771" lon="6.9994933"/>
      <trkpt lat="50.3660098" lon="6.9995022"/>
      <trkpt lat="50.3659309" lon="6.9995187"/>
      <trkpt lat="50.3655525" lon="6.9995998"/>
      <trkpt lat="50.3653867" lon="6.9996270"/>
      <trkpt lat="50.3652547" lon="6.9996270"/>
      <trkpt lat="50.3651809" lon="6.9996227"/>
      <trkpt lat="50.3648641" lon="6.9995896"/>
      <trkpt lat="50.3647337" lon="6.9995869"/>
      <trkpt lat="50.3639801" lon="6.9996444"/>
      <trkpt lat="50.3638507" lon="6.9996245"/>
      <trkpt lat="50.3638005" lon="6.9996061"/>
      <trkpt lat="50.3637688" lon="6.9995886"/>
      <trkpt lat="50.3637197" lon="6.9995507"/>
      <trkpt lat="50.3636798" lon="6.9995143"/>
      <trkpt lat="50.3636273" lon="6.9994565"/>
      <trkpt lat="50.3633572" lon="6.9991000"/>
      <trkpt lat="50.3632687" lon="6.9989725"/>
      <trkpt lat="50.3632221" lon="6.9988832"/>
      <trkpt lat="50.3631828" lon="6.9988038"/>
      <trkpt lat="50.3631329" lon="6.9986793"/>
      <trkpt lat="50.3630894" lon="6.9985269"/>
      <trkpt lat="50.3630447" lon="6.9983133"/>
      <trkpt lat="50.3629641" lon="6.9977575"/>
      <trkpt lat="50.3628903" lon="6.9973026"/>
      <trkpt lat="50.3628492" lon="6.9971471"/>
      <trkpt lat="50.3627984" lon="6.9970066"/>
      <trkpt lat="50.3627409" lon="6.9968833"/>
      <trkpt lat="50.3626778" lon="6.9967708"/>
      <trkpt lat="50.3625553" lon="6.9965836"/>
      <trkpt lat="50.3621613" lon="6.9959900"/>
      <trkpt lat="50.3619095" lon="6.9956121"/>
      <trkpt lat="50.3617721" lon="6.9954271"/>
      <trkpt lat="50.3616453" lon="6.9952830"/>
      <trkpt lat="50.3614953" lon="6.9951469"/>
      <trkpt lat="50.3606246" lon="6.9945034"/>
      <trkpt lat="50.3604988" lon="6.9944072"/>
      <trkpt lat="50.3603811" lon="6.9943059"/>
      <trkpt lat="50.3602553" lon="6.9941716"/>
      <trkpt lat="50.3601230" lon="6.9940018"/>
      <trkpt lat="50.3600001" lon="6.9938145"/>
      <trkpt lat="50.3599216" lon="6.9936764"/>
      <trkpt lat="50.3598496" lon="6.9935358"/>
      <trkpt lat="50.3597768" lon="6.9933763"/>
      <trkpt lat="50.3597334" lon="6.9932550"/>
      <trkpt lat="50.3596980" lon="6.9931312"/>
      <trkpt lat="50.3596288" lon="6.9928801"/>
      <trkpt lat="50.3595856" lon="6.9927470"/>
      <trkpt lat="50.3595348" lon="6.9926109"/>
      <trkpt lat="50.3594044" lon="6.9923508"/>
      <trkpt lat="50.3592300" lon="6.9920221"/>
      <trkpt lat="50.3591603" lon="6.9918836"/>
      <trkpt lat="50.3590883" lon="6.9917158"/>
      <trkpt lat="50.3590180" lon="6.9914972"/>
      <trkpt lat="50.3589771" lon="6.9913340"/>
      <trkpt lat="50.3589314" lon="6.9911150"/>
      <trkpt lat="50.3588805" lon="6.9907379"/>
      <trkpt lat="50.3588560" lon="6.9905072"/>
      <trkpt lat="50.3588202" lon="6.9902334"/>
      <trkpt lat="50.3587585" lon="6.9898518"/>
      <trkpt lat="50.3587252" lon="6.9896648"/>
      <trkpt lat="50.3586806" lon="6.9894549"/>
      <trkpt lat="50.3582743" lon="6.9877574"/>
      <trkpt lat="50.3582344" lon="6.9875541"/>
      <trkpt lat="50.3581994" lon="6.9873508"/>
      <trkpt lat="50.3581439" lon="6.9869138"/>
      <trkpt lat="50.3581232" lon="6.9866519"/>
      <trkpt lat="50.3581128" lon="6.9864118"/>
      <trkpt lat="50.3581090" lon="6.9861819"/>
      <trkpt lat="50.3581174" lon="6.9860243"/>
      <trkpt lat="50.3581306" lon="6.9859075"/>
      <trkpt lat="50.3581535" lon="6.9857932"/>
      <trkpt lat="50.3581913" lon="6.9856521"/>
      <trkpt lat="50.3582246" lon="6.9855468"/>
      <trkpt lat="50.3582728" lon="6.9854281"/>
      <trkpt lat="50.3583550" lon="6.9852638"/>
      <trkpt lat="50.3586129" lon="6.9848127"/>
      <trkpt lat="50.3587091" lon="6.9846390"/>
      <trkpt lat="50.3588149" lon="6.9844146"/>
      <trkpt lat="50.3588719" lon="6.9842643"/>
      <trkpt lat="50.3588948" lon="6.9841828"/>
      <trkpt lat="50.3589144" lon="6.9841013"/>
      <trkpt lat="50.3589292" lon="6.9840172"/>
      <trkpt lat="50.3589407" lon="6.9839332"/>
      <trkpt lat="50.3589474" lon="6.9838568"/>
      <trkpt lat="50.3589460" lon="6.9837753"/>
      <trkpt lat="50.3589435" lon="6.9837136"/>
      <trkpt lat="50.3589354" lon="6.9836354"/>
      <trkpt lat="50.3589054" lon="6.9834727"/>
      <trkpt lat="50.3588588" lon="6.9833106"/>
      <trkpt lat="50.3588009" lon="6.9831460"/>
      <trkpt lat="50.3586619" lon="6.9828239"/>
      <trkpt lat="50.3584227" lon="6.9822684"/>
      <trkpt lat="50.3581038" lon="6.9815413"/>
      <trkpt lat="50.3580143" lon="6.9813626"/>
      <trkpt lat="50.3579782" lon="6.9813092"/>
      <trkpt lat="50.3579421" lon="6.9812678"/>
      <trkpt lat="50.3579020" lon="6.9812261"/>
      <trkpt lat="50.3578657" lon="6.9811965"/>
      <trkpt lat="50.3578266" lon="6.9811722"/>
      <trkpt lat="50.3577884" lon="6.9811555"/>
      <trkpt lat="50.3577471" lon="6.9811457"/>
      <trkpt lat="50.3577068" lon="6.9811433"/>
      <trkpt lat="50.3576636" lon="6.9811547"/>
      <trkpt lat="50.3576243" lon="6.9811720"/>
      <trkpt lat="50.3575772" lon="6.9811985"/>
      <trkpt lat="50.3575340" lon="6.9812279"/>
      <trkpt lat="50.3574860" lon="6.9812753"/>
      <trkpt lat="50.3574456" lon="6.9813286"/>
      <trkpt lat="50.3572493" lon="6.9815957"/>
      <trkpt lat="50.3571103" lon="6.9818028"/>
      <trkpt lat="50.3569950" lon="6.9820006"/>
      <trkpt lat="50.3569470" lon="6.9821066"/>
      <trkpt lat="50.3569040" lon="6.9822050"/>
      <trkpt lat="50.3568259" lon="6.9824247"/>
      <trkpt lat="50.3567373" lon="6.9827319"/>
      <trkpt lat="50.3566472" lon="6.9830823"/>
      <trkpt lat="50.3564391" lon="6.9839792"/>
      <trkpt lat="50.3562338" lon="6.9850029"/>
      <trkpt lat="50.3562016" lon="6.9851507"/>
      <trkpt lat="50.3561681" lon="6.9852577"/>
      <trkpt lat="50.3561333" lon="6.9853328"/>
      <trkpt lat="50.3560985" lon="6.9853950"/>
      <trkpt lat="50.3560465" lon="6.9854626"/>
      <trkpt lat="50.3559891" lon="6.9855281"/>
      <trkpt lat="50.3556427" lon="6.9858878"/>
      <trkpt lat="50.3555808" lon="6.9859393"/>
      <trkpt lat="50.3555271" lon="6.9859807"/>
      <trkpt lat="50.3554191" lon="6.9860440"/>
      <trkpt lat="50.3548791" lon="6.9862829"/>
      <trkpt lat="50.3547522" lon="6.9863194"/>
      <trkpt lat="50.3546156" lon="6.9863357"/>
      <trkpt lat="50.3545219" lon="6.9863341"/>
      <trkpt lat="50.3544411" lon="6.9863225"/>
      <trkpt lat="50.3543598" lon="6.9863042"/>
      <trkpt lat="50.3542752" lon="6.9862808"/>
      <trkpt lat="50.3541910" lon="6.9862494"/>
      <trkpt lat="50.3541198" lon="6.9862103"/>
      <trkpt lat="50.3540089" lon="6.9861386"/>
      <trkpt lat="50.3539268" lon="6.9860726"/>
      <trkpt lat="50.3538538" lon="6.9860017"/>
      <trkpt lat="50.3537712" lon="6.9859117"/>
      <trkpt lat="50.3537121" lon="6.9858347"/>
      <trkpt lat="50.3536417" lon="6.9857352"/>
      <trkpt lat="50.3535843" lon="6.9856425"/>
      <trkpt lat="50.3535246" lon="6.9855332"/>
      <trkpt lat="50.3534631" lon="6.9854013"/>
      <trkpt lat="50.3533926" lon="6.9852230"/>
      <trkpt lat="50.3527008" lon="6.9832441"/>
      <trkpt lat="50.3526741" lon="6.9831675"/>
      <trkpt lat="50.3525460" lon="6.9828358"/>
      <trkpt lat="50.3500245" lon="6.9762865"/>
      <trkpt lat="50.3490869" lon="6.9738476"/>
    </trkseg>
  </trk>
</gpx>
